[{"OBJECT_NAME":"STARLINK-1234","OBJECT_ID":"2020-012N","EPOCH":"2026-03-09T21:47:04.288992","MEAN_MOTION":15.62427923,"ECCENTRICITY":0.00038198,"INCLINATION":53.0447,"RA_OF_ASC_NODE":324.2373,"ARG_OF_PERICENTER":306.6742,"MEAN_ANOMALY":53.392,"EPHEMERIS_TYPE":0,"CLASSIFICATION_TYPE":"U","NORAD_CAT_ID":45190,"ELEMENT_SET_NO":999,"REV_AT_EPOCH":33591,"BSTAR":0.0016464454,"MEAN_MOTION_DOT":0.0015115,"MEAN_MOTION_DDOT":0},{"OBJECT_NAME":"PSLV R\/B","OBJECT_ID":"2022-013D","EPOCH":"2026-03-09T16:30:06.230304","MEAN_MOTION":15.6423675,"ECCENTRICITY":0.00125272,"INCLINATION":97.4518,"RA_OF_ASC_NODE":121.4885,"ARG_OF_PERICENTER":118.9618,"MEAN_ANOMALY":241.2898,"EPHEMERIS_TYPE":0,"CLASSIFICATION_TYPE":"U","NORAD_CAT_ID":51659,"ELEMENT_SET_NO":999,"REV_AT_EPOCH":22709,"BSTAR":0.00053235424,"MEAN_MOTION_DOT":0.00050953,"MEAN_MOTION_DDOT":0}]
